{
"type": "FeatureCollection",
"name": "mine_aoi_projected",
"crs": { "type": "name", "properties": { "name": "urn:ogc:def:crs:EPSG::32645" } },
"features": [
{ "type": "Feature", "properties": { }, "geometry": { "type": "Polygon", "coordinates": [ [ [ 525498.057778899208643, 2614392.766963861882687 ], [ 526518.387667964329012, 2614173.16814816230908 ], [ 527333.303790137986653, 2614728.223531051073223 ], [ 527127.467443716712296, 2615724.229355462361127 ], [ 526209.21806252177339, 2615943.968145871534944 ], [ 525394.328439382021315, 2615388.974612119141966 ], [ 525498.057778899208643, 2614392.766963861882687 ] ] ] } }
]
}
